STARLINK-5051           
1 53916U 22119AG  22294.25001157 -.00053638  00000+0 -37946-3 0  9997
2 53916  53.2208 122.8047 0001184 134.3738  29.8813 15.73245123  4573
STARLINK-5036           
1 53917U 22119AH  22293.91667824  .00084286  00000+0  60027-3 0  9996
2 53917  53.2160 124.5513 0001141  76.1379 307.1064 15.73148497  1309
STARLINK-5012           
1 53918U 22119AJ  22294.25001157 -.00067746  00000+0 -48108-3 0  9996
2 53918  53.2157 122.8983 0001104  93.2157  21.3134 15.73253053  4571
STARLINK-5023           
1 53919U 22119AK  22293.91667824  .00087543  00000+0  62276-3 0  9995
2 53919  53.2156 124.5446 0001510  71.9397 314.2998 15.73159204  1307
STARLINK-5025           
1 53920U 22119AL  22294.25001157  .00035966  00000+0  25957-3 0  9993
2 53920  53.2154 122.8926 0001142  82.2048  35.2941 15.73201088  4578
STARLINK-5005           
1 53921U 22119AM  22294.06163068  .00811899  11683-4  53891-3 0  9992
2 53921  53.2170 119.6445 0023937 146.1715 214.1071 16.15640765  4606
STARLINK-5002           
1 53922U 22119AN  22294.25001157  .00034801  00000+0  25138-3 0  9993
2 53922  53.2157 122.8918 0001164  94.2743  23.8318 15.73196733  4574
STARLINK-5004           
1 53923U 22119AP  22293.91667824  .00029007  00000+0  21035-3 0  9999
2 53923  53.2159 124.5428 0001232  68.9936 319.0001 15.73203352  1303
STARLINK-5001           
1 53924U 22119AQ  22293.91667824  .00087154  00000+0  62013-3 0  9998
2 53924  53.2159 124.5367 0001311  75.3397 315.6746 15.73156190  1302
STARLINK-5011           
1 53925U 22119AR  22293.91667824  .00078134  00000+0  55651-3 0  9997
2 53925  53.2163 124.5463 0001564  66.6855 320.1230 15.73176608  1302
STARLINK-5014           
1 53926U 22119AS  22294.25001157  .00034641  00000+0  25031-3 0  9991
2 53926  53.2158 122.8834 0000900 100.9964  19.4937 15.73191278  4570
STARLINK-5008           
1 53927U 22119AT  22294.25001157  .00011036  00000+0  82909-4 0  9993
2 53927  53.2157 122.8857 0000688  89.1644  30.1442 15.73209117  4574
STARLINK-5009           
1 53928U 22119AU  22293.91667824  .00064925  00000+0  46375-3 0  9996
2 53928  53.2158 124.5328 0001290  86.6104 305.5641 15.73184571  1305
STARLINK-5018           
1 53929U 22119AV  22293.91667824  .00085534  00000+0  60880-3 0  9993
2 53929  53.2153 124.5380 0002110  31.4002 358.4034 15.73155094  4513
STARLINK-5010           
1 53930U 22119AW  22294.25001157  .00012936  00000+0  96608-4 0  9998
2 53930  53.2160 122.8833 0001039  82.0086  40.4084 15.73158699  4573
STARLINK-5015           
1 53931U 22119AX  22294.25001157  .00035971  00000+0  25988-3 0  9995
2 53931  53.2149 122.8785 0001162  41.1904  82.2989 15.73176058  4576
STARLINK-4772           
1 53932U 22119AY  22294.25001157 -.00070660  00000+0 -50224-3 0  9993
2 53932  53.2155 122.8824 0001290  57.0156  65.8712 15.73247864  4570
STARLINK-4782           
1 53933U 22119AZ  22293.91667824  .00046098  00000+0  33131-3 0  9999
2 53933  53.2158 124.5303 0001284  87.7303 305.0309 15.73182498  1302
STARLINK-4775           
1 53934U 22119BA  22293.91667824 -.00024378  00000+0 -16980-3 0  9992
2 53934  53.2158 124.5256 0001029  70.4060 324.7288 15.73197943  1301
STARLINK-5000           
1 53935U 22119BB  22293.91667824  .00086054  00000+0  61247-3 0  9996
2 53935  53.2160 124.5262 0001527  85.8053 310.5269 15.73154744  1301
STARLINK-4791           
1 53936U 22119BC  22294.25001157 -.00050659  00000+0 -35789-3 0  9992
2 53936  53.2156 122.8774 0000870  91.3105  33.3588 15.73254105  4574
STARLINK-4765           
1 53937U 22119BD  22293.91667824  .00086035  00000+0  61259-3 0  9990
2 53937  53.2164 124.5228 0001759  38.8017 358.1624 15.73144722  1302
2022-118C               
1 53942U 22118C   22294.27246865  .00029814  23768-5  36736-3 0  9999
2 53942  97.5252 300.9653 0266903 271.8718  85.1979 15.28193836  4011
YAOGAN-36 01A           
1 53943U 22120A   22294.31369272  .00009595  00000+0  38810-3 0  9993
2 53943  34.9978  29.5048 0005448 155.5236 244.9477 15.23947116  3786
CZ-2D DEB               
1 53944U 22120B   22294.29766228  .00028038  00000+0  10579-2 0  9997
2 53944  35.0004  29.3825 0007537 118.8715 277.7927 15.26079373  3783
CZ-2D R/B               
1 53945U 22120C   22293.99915311  .00024821  00000+0  94902-3 0  9992
2 53945  34.9964  31.3430 0006368 111.3235  55.0832 15.25667297  3709
YAOGAN-36 01B           
1 53946U 22120D   22294.01034829 -.00033097  00000+0 -13420-2 0  9995
2 53946  34.9974  31.4283 0006180 115.0044  53.2161 15.23885149  3698
YAOGAN-36 01C           
1 53947U 22120E   22294.31001877  .00013540  00000+0  54706-3 0  9998
2 53947  34.9983  29.4847 0003192 206.7279 189.9326 15.23935853  3788
2022-121A               
1 53948U 22121A   22294.11489120  .00007241  00000+0  35782-3 0  9993
2 53948  97.4543 314.3917 0012841 176.1985 268.5900 15.18077942  3663
2022-121B               
1 53949U 22121B   22294.11205486  .00005381  00000+0  26595-3 0  9990
2 53949  97.4522 314.3885 0011865 180.3049 264.3228 15.18202968  3663
2022-121C               
1 53950U 22121C   22294.10798133  .00004641  00000+0  22826-3 0  9998
2 53950  97.4551 314.4036 0013170 186.9766 257.4089 15.18436708  3664
SELFIESAT               
1 53951U 22057BA  22293.57934201  .00008081  00000+0  45302-3 0  9991
2 53951  97.5278  46.5350 0011653  93.3534 266.9031 15.13590588 22353
SES-20                  
1 53960U 22123A   22293.72410551  .00000106  00000+0  00000+0 0  9991
2 53960   0.5598 175.1879 0013296 205.3209 128.2963  1.00405315   147
SES-21                  
1 53961U 22123B   22293.74739997  .00000120  00000+0  00000+0 0  9998
2 53961   0.6469 170.4995 0006213 176.9052 168.5294  1.00295473   161
ATLAS 5 CENTAUR R/B     
1 53962U 22123C   22292.99782772 -.00000081  00000+0  00000+0 0  9991
2 53962   1.8735 165.6263 0290152 199.6125 159.7764  1.07593403   171
CREW DRAGON 5           
1 53963U 22124A   22293.47193758  .00012197  00000+0  22442-3 0  9995
2 53963  51.6427  75.8961 0005248 354.8812 111.8475 15.49600066364613
STARLINK-4633           
1 53964U 22125A   22293.91667824 -.01184537  00000+0 -10057-1 0  9994
2 53964  53.2174  17.6120 0006370 272.3820 276.2294 15.71827103  1309
STARLINK-4578           
1 53965U 22125B   22293.91667824 -.01184674  00000+0 -10042-1 0  9991
2 53965  53.2174  17.6103 0006384 272.2693 277.0107 15.71864785  1302
STARLINK-4635           
1 53966U 22125C   22293.91667824 -.01184929  00000+0 -10025-1 0  9996
2 53966  53.2173  17.6092 0006184 272.8439 277.1223 15.71913543  1308
STARLINK-4634           
1 53967U 22125D   22294.16667824 -.01197366  00000+0 -10237-1 0  9999
2 53967  53.2173  16.3722 0001908  29.3351 136.5888 15.71312823  2784
STARLINK-4629           
1 53968U 22125E   22294.16667824 -.01186058  00000+0 -10232-1 0  9991
2 53968  53.2173  16.3681 0006628 270.0127 258.0479 15.71452421  2784
STARLINK-4468           
1 53969U 22125F   22294.16667824 -.01187229  00000+0 -10281-1 0  9997
2 53969  53.2173  16.3708 0006619 270.0593 256.5894 15.71366572  2787
STARLINK-4567           
1 53970U 22125G   22293.91667824 -.00071797  00000+0 -51085-3 0  9991
2 53970  53.2194  17.6069 0002376  20.6543 174.1873 15.73225998  1303
STARLINK-4639           
1 53971U 22125H   22294.16667824 -.01187246  00000+0 -10263-1 0  9999
2 53971  53.2173  16.3694 0006598 269.8626 257.4898 15.71408445  2783
STARLINK-5157           
1 53972U 22125J   22294.16667824 -.00017024  00000+0 -11695-3 0  9997
2 53972  53.2185  16.3687 0002185  20.4791 152.2363 15.73230367  2788
STARLINK-5156           
1 53973U 22125K   22294.25001157 -.01162580  00000+0 -10080-1 0  9993
2 53973  53.2175  15.9553 0006537 268.2970  12.1756 15.71277545  2799
STARLINK-5159           
1 53974U 22125L   22293.91667824 -.00537090  00000+0 -37966-2 0  9999
2 53974  53.2174  17.2993 0005924 268.9450  76.6543 15.74770374  1307
STARLINK-5137           
1 53975U 22125M   22293.91667824  .00010705  00000+0  80640-4 0  9996
2 53975  53.2192  17.6058 0002685  20.1216 175.3284 15.73187726  1304
STARLINK-5134           
1 53976U 22125N   22294.25001157 -.00030443  00000+0 -21260-3 0  9991
2 53976  53.2207  15.9062 0001801  60.2205 250.7822 15.73271083  2790
STARLINK-5094           
1 53977U 22125P   22294.16667824 -.00001483  00000+0 -61254-5 0  9992
2 53977  53.2177  16.3658 0002686  15.5556 158.3539 15.73211914  2781
STARLINK-5148           
1 53978U 22125Q   22294.16667824 -.00038254  00000+0 -26910-3 0  9997
2 53978  53.2178  16.3618 0001899  36.5309 139.1672 15.73221852  2780
STARLINK-5123           
1 53979U 22125R   22294.16667824 -.00011997  00000+0 -81077-4 0  9999
2 53979  53.2184  16.3648 0002293  16.8734 157.6342 15.73223806  2783
STARLINK-5133           
1 53980U 22125S   22293.91667824 -.00077056  00000+0 -54805-3 0  9999
2 53980  53.2184  17.5984 0002642  24.5544 174.9705 15.73262375  1300
STARLINK-5149           
1 53981U 22125T   22294.16667824  .00098374  00000+0  69911-3 0  9996
2 53981  53.2209  16.3015 0001961  34.9354 172.0144 15.73133761  2783
STARLINK-5120           
1 53982U 22125U   22293.91667824 -.00094920  00000+0 -67764-3 0  9998
2 53982  53.2181  17.5863 0002433  22.1486 183.3853 15.73260808  1309
STARLINK-5103           
1 53983U 22125V   22294.16667824 -.00024608  00000+0 -17114-3 0  9997
2 53983  53.2174  16.3213 0002453  25.2063 170.7683 15.73233566  2780
STARLINK-5142           
1 53984U 22125W   22293.91667824 -.00072542  00000+0 -51564-3 0  9997
2 53984  53.2182  17.5950 0001997  20.5698 180.7896 15.73254894  1306
STARLINK-5147           
1 53985U 22125X   22294.16667824  .00018781  00000+0  13792-3 0  9990
2 53985  53.2181  16.3599 0002202  30.8488 146.0134 15.73202292  2781
STARLINK-5119           
1 53986U 22125Y   22294.16667824 -.00530246  00000+0 -37241-2 0  9992
2 53986  53.2174  16.0661 0001467 279.0262  40.4012 15.74943263  2783
